STARLINK-3765           
1 52295U 22041AL  23260.24883091  .00001960  00000+0  14120-3 0  9996
2 52295  53.2165 199.3127 0001509 101.2583 258.8579 15.08833764 77962
STARLINK-3766           
1 52296U 22041AM  23260.22675062  .00000910  00000+0  75285-4 0  9996
2 52296  53.2180 199.4143 0001460  81.6543 278.4614 15.08842012 77966
STARLINK-3758           
1 52297U 22041AN  23260.24514681  .00001882  00000+0  13627-3 0  9998
2 52297  53.2169 199.3279 0001348  83.8579 276.2567 15.08848751 77960
STARLINK-3760           
1 52298U 22041AP  23260.20050044  .00011300  00000+0  69472-3 0  9998
2 52298  53.2166 199.2940 0001203  98.4611 261.6518 15.10504097 77960
STARLINK-3759           
1 52299U 22041AQ  23260.09794737  .00000480  00000+0  48227-4 0  9993
2 52299  53.2172 199.9897 0001430 102.6482 257.4670 15.08847669 77944
STARLINK-3769           
1 52300U 22041AR  23260.21571110  .00000836  00000+0  70603-4 0  9996
2 52300  53.2176 199.4624 0001236  92.3194 267.7940 15.08839792 79183
STARLINK-3768           
1 52301U 22041AS  23260.23410918 -.00000113  00000+0  11005-4 0  9997
2 52301  53.2171 199.3783 0001314 109.8375 250.2759 15.08844635 77967
STARLINK-3564           
1 52302U 22041AT  23260.20559394  .00000361  00000+0  40785-4 0  9998
2 52302  53.2183 189.5051 0001560  94.4201 265.6970 15.08840415 78092
STARLINK-3742           
1 52303U 22041AU  23260.21938955  .00004039  00000+0  27163-3 0  9994
2 52303  53.2167 199.4489 0001330  93.0312 267.0832 15.08848607 79188
STARLINK-3744           
1 52304U 22041AV  23260.20191047  .00001084  00000+0  86184-4 0  9993
2 52304  53.2180 189.5237 0001428  88.8687 271.2469 15.08839121 78093
STARLINK-3724           
1 52305U 22041AW  23260.22307969  .00004086  00000+0  27461-3 0  9995
2 52305  53.2157 199.5365 0001344  93.0293 267.0853 15.08847849 77960
STARLINK-3747           
1 52306U 22041AX  23260.19822954  .00001649  00000+0  12166-3 0  9996
2 52306  53.2170 189.5405 0001379  86.2783 273.8367 15.08843296 79314
STARLINK-3755           
1 52307U 22041AY  23260.21202806  .00001874  00000+0  13579-3 0  9997
2 52307  53.2172 199.4780 0001270  96.0013 264.1124 15.08846865 77966
STARLINK-3745           
1 52308U 22041AZ  23260.12462704  .00001395  00000+0  10571-3 0  9990
2 52308  53.2172 189.8732 0001424  93.6496 266.4659 15.08845634 79307
STARLINK-3756           
1 52309U 22041BA  23260.12830810  .00001240  00000+0  95991-4 0  9997
2 52309  53.2169 189.8553 0001337  90.3333 269.7812 15.08840750 79303
STARLINK-3688           
1 52310U 22041BB  23260.58334491  .00034068  00000+0  22467-2 0  9993
2 52310  53.2157 187.6348 0001259  97.7810   1.7914 15.07191413 79372
STARLINK-3750           
1 52311U 22041BC  23260.18718776  .00001801  00000+0  13117-3 0  9994
2 52311  53.2173 189.5890 0001530  80.6065 279.5100 15.08846930 79317
STARLINK-3752           
1 52312U 22041BD  23260.21294015  .00000670  00000+0  60179-4 0  9998
2 52312  53.2161 189.4252 0001364  90.1552 269.9596 15.08845216 79327
STARLINK-3749           
1 52313U 22041BE  23260.21662168  .00000847  00000+0  71310-4 0  9992
2 52313  53.2178 189.4548 0001552 110.0468 250.0691 15.08848212 79327
STARLINK-3889           
1 52331U 22045A   23260.40430758  .00005563  00000+0  36720-3 0  9990
2 52331  53.2143 308.6188 0001441  81.7507 278.3649 15.08855560 79127
STARLINK-3831           
1 52332U 22045B   23260.41630630  .00009519  00000+0  61499-3 0  9999
2 52332  53.2153 308.5724 0001482  75.6466 284.4690 15.08860210 79127
STARLINK-3847           
1 52333U 22045C   23260.41167236  .00001030  00000+0  82761-4 0  9993
2 52333  53.2162 308.5863 0001764  61.2868 298.8301 15.08847797 79114
STARLINK-3880           
1 52334U 22045D   23260.40062967  .00001183  00000+0  92393-4 0  9999
2 52334  53.2165 308.6342 0001635  98.8222 261.2956 15.08859449 79115
STARLINK-3814           
1 52335U 22045E   23260.46319192  .00002368  00000+0  16676-3 0  9996
2 52335  53.2162 308.3551 0001452  85.0537 275.0621 15.08849814 79135
STARLINK-3823           
1 52336U 22045F   23260.43740619  .00001968  00000+0  14165-3 0  9992
2 52336  53.2167 308.2700 0001452  96.6955 263.4203 15.08850041 79139
STARLINK-3797           
1 52337U 22045G   23260.40798667  .00008484  00000+0  55019-3 0  9999
2 52337  53.2166 308.6006 0001551  90.1469 269.9701 15.08861319 79124
STARLINK-3815           
1 52338U 22045H   23260.34032634 -.00007650  00000+0 -38179-3 0  9992
2 52338  53.2180 297.4048 0001649  76.1439 283.9740 15.15662435 79283
STARLINK-3792           
1 52339U 22045J   23260.41530358  .00008805  00000+0  57031-3 0  9996
2 52339  53.2153 308.2113 0001419  81.3620 278.7533 15.08860119 79130
STARLINK-3818           
1 52340U 22045K   23260.41259167  .00002898  00000+0  20003-3 0  9999
2 52340  53.2165 298.5792 0001399  95.5978 264.5174 15.08850205 79251
STARLINK-3843           
1 52341U 22045L   23260.44846460  .00002830  00000+0  19577-3 0  9991
2 52341  53.2158 308.3726 0001499  65.4297 294.6852 15.08854717 79138
STARLINK-3850           
1 52342U 22045M   23260.35004445  .00000706  00000+0  62460-4 0  9991
2 52342  53.2166 298.9751 0001677  75.2004 284.9174 15.08848169 79259
STARLINK-3849           
1 52343U 22045N   23260.41903125  .00001981  00000+0  14252-3 0  9993
2 52343  53.2165 308.5520 0001548  76.6642 283.4523 15.08849296 79132
STARLINK-3851           
1 52344U 22045P   23260.40523618  .00002941  00000+0  20272-3 0  9994
2 52344  53.2152 298.6810 0001523  74.9688 285.1473 15.08853453 79261
STARLINK-3852           
1 52345U 22045Q   23260.49388246  .00002883  00000+0  20787-3 0  9996
2 52345  53.2166 298.3341 0001441  85.4859 274.6297 15.07217942 79262
STARLINK-3812           
1 52346U 22045R   23260.39882579  .00004945  00000+0  32839-3 0  9996
2 52346  53.2160 298.6488 0001582  79.7040 280.4131 15.08858558 79263
STARLINK-3826           
1 52347U 22045S   23260.47610493  .00001304  00000+0  99982-4 0  9999
2 52347  53.2165 298.3018 0001664  92.1272 267.9910 15.08853309 79277
STARLINK-3829           
1 52348U 22045T   23260.39050663  .00006631  00000+0  43406-3 0  9995
2 52348  53.2160 298.6770 0001407  74.2645 285.8502 15.08861799 79268
STARLINK-3819           
1 52349U 22045U   23260.40155002 -.00000197  00000+0  57186-5 0  9995
2 52349  53.2186 298.6320 0001743  83.1059 277.0131 15.08850119 79264
STARLINK-3754           
1 52350U 22045V   23260.38683165  .00003396  00000+0  23126-3 0  9998
2 52350  53.2155 298.6968 0001387  92.5787 267.5364 15.08851562 79261
STARLINK-3838           
1 52352U 22045X   23260.37578853  .00010879  00000+0  70009-3 0  9992
2 52352  53.2152 298.7441 0001502  80.0521 280.0641 15.08864195 79268
STARLINK-3807           
1 52353U 22045Y   23260.38315927  .00003283  00000+0  22429-3 0  9999
2 52353  53.2165 298.7115 0001616  89.5235 270.5942 15.08833430 79269
STARLINK-3876           
1 52354U 22045Z   23260.43099153  .00003097  00000+0  21253-3 0  9993
2 52354  53.2157 298.4990 0001464  88.5816 271.5344 15.08850487 79273
STARLINK-3877           
1 52355U 22045AA  23260.37947072 -.00000758  00000+0 -29486-4 0  9999
2 52355  53.2156 298.7309 0001853  65.5394 294.5791 15.08850493 79265
STARLINK-3801           
1 52356U 22045AB  23260.43467458  .00010803  00000+0  69520-3 0  9994
2 52356  53.2149 298.5121 0001565  72.2485 287.8677 15.08870848 79279
STARLINK-3821           
1 52357U 22045AC  23260.37210914  .00008933  00000+0  57828-3 0  9990
2 52357  53.2143 298.7635 0001517  78.9828 281.1335 15.08862407 79266
STARLINK-3837           
1 52358U 22045AD  23260.41994797  .00006529  00000+0  42778-3 0  9991
2 52358  53.2153 298.5499 0001569  88.1192 271.9979 15.08854433 79270
STARLINK-3853           
1 52359U 22045AE  23260.43563908  .00018435  00000+0  11726-2 0  9997
2 52359  53.2150 298.4887 0001612  74.6176 285.4994 15.08863538 79272
STARLINK-3824           
1 52360U 22045AF  23260.34726855  .00008484  00000+0  55020-3 0  9990
2 52360  53.2144 288.8753 0001586  71.0383 289.0780 15.08859301 79381
STARLINK-3728           
1 52361U 22045AG  23260.42731098  .00002163  00000+0  15393-3 0  9992
2 52361  53.2156 298.5168 0001410  82.2973 277.8179 15.08849189 79276
STARLINK-3848           
1 52362U 22045AH  23260.40984341  .00003639  00000+0  24657-3 0  9994
2 52362  53.2157 288.5940 0001635  75.7065 284.4108 15.08842684 79407
STARLINK-3830           
1 52363U 22045AJ  23260.42363145  .00002622  00000+0  18273-3 0  9998
2 52363  53.2161 298.5336 0001445  94.4477 265.6680 15.08851471 79272
STARLINK-3820           
1 52364U 22045AK  23260.39511922  .00001666  00000+0  12279-3 0  9990
2 52364  53.2164 288.5719 0001747  90.3971 269.7222 15.08828454 79406
STARLINK-3874           
1 52365U 22045AL  23260.35095132  .00003872  00000+0  26117-3 0  9994
2 52365  53.2147 288.8576 0001368  94.8788 265.2360 15.08851890 79398
STARLINK-3808           
1 52366U 22045AM  23260.39878792  .00005431  00000+0  35893-3 0  9994
2 52366  53.2158 288.6420 0001618  80.4169 279.7006 15.08853838 79402
STARLINK-3817           
1 52367U 22045AN  23260.40615184  .00001822  00000+0  13250-3 0  9994
2 52367  53.2164 288.6072 0001492  87.8906 272.2257 15.08848152 79402
STARLINK-3834           
1 52368U 22045AP  23260.32150989  .00000489  00000+0  48813-4 0  9995
2 52368  53.2172 288.9867 0001447  97.5502 262.5654 15.08843917 79381
STARLINK-3841           
1 52369U 22045AQ  23260.40246840  .00007182  00000+0  46860-3 0  9993
2 52369  53.2154 288.6256 0001498  82.6809 277.4354 15.08859939 79408
STARLINK-3827           
1 52370U 22045AR  23260.39606692  .00002744  00000+0  19036-3 0  9992
2 52370  53.2147 288.6649 0001450 104.2123 255.9031 15.08850414 79408
STARLINK-3798           
1 52371U 22045AS  23260.39238904  .00000525  00000+0  51095-4 0  9997
2 52371  53.2186 288.6792 0001587 103.4253 256.6916 15.08847185 79396
